NORAD_CAT_ID,OBJECT_NAME,OBJECT_TYPE,EPOCH,MEAN_MOTION,ECCENTRICITY,INCLINATION,RA_OF_ASC_NODE,ARG_OF_PERICENTER,MEAN_ANOMALY,BSTAR,MEAN_MOTION_DOT,MEAN_MOTION_DDOT,TLE_LINE0,TLE_LINE1,TLE_LINE2,SEMIMAJOR_AXIS,PERIOD,APOGEE,PERIGEE,DECAYED
52700.0,STARLINK-4034,PAYLOAD,2023-11-25 03:12:45,15.088418,0.000141,53.2156,299.7205,104.247,255.8679,0.0001255,1.71e-05,0.0,0 STARLINK-4034,1 52700U 22053AW  23329.13386301  .00001710  00000-0  12550-3 0  9995,2 52700  53.2156 299.7205 0001410 104.2470 255.8679 15.08841800 84544,6917.875,95.437,540.715,538.764,0.0
52700.0,STARLINK-4034,PAYLOAD,2023-11-25 07:58:55,15.08845218,0.0001407,53.2154,298.8275,104.4823,255.6325,0.00019186,2.767e-05,0.0,0 STARLINK-4034,1 52700U 22053AW  23329.33258182  .00002767  00000-0  19186-3 0  9997,2 52700  53.2154 298.8275 0001407 104.4823 255.6325 15.08845218 84980,6917.864,95.437,540.703,538.756,0.0
52700.0,STARLINK-4034,PAYLOAD,2023-11-26 03:03:31,15.08867939,0.0001561,53.2147,295.2579,112.376,247.7398,0.00056553,8.731e-05,0.0,0 STARLINK-4034,1 52700U 22053AW  23330.12745074  .00008731  00000-0  56553-3 0  9993,2 52700  53.2147 295.2579 0001561 112.3760 247.7398 15.08867939 84693,6917.795,95.436,540.74,538.58,0.0
52700.0,STARLINK-4034,PAYLOAD,2023-11-26 07:49:40,15.08876914,0.000148,53.2154,294.3661,109.1219,250.9934,0.00077766,0.00012123,0.0,0 STARLINK-4034,1 52700U 22053AW  23330.32616491  .00012123  00000-0  77766-3 0  9994,2 52700  53.2154 294.3661 0001480 109.1219 250.9934 15.08876914 85131,6917.768,95.435,540.656,538.609,0.0
52700.0,STARLINK-4034,PAYLOAD,2023-11-26 22:08:10,15.08824517,0.0002024,53.2166,291.6888,111.2587,248.8622,-0.00040062,-6.656e-05,0.0,0 STARLINK-4034,1 52700U 22053AW  23330.92234442 -.00006656  00000-0 -40062-3 0  9997,2 52700  53.2166 291.6888 0002024 111.2587 248.8622 15.08824517 85224,6917.928,95.439,541.193,538.393,0.0
52700.0,STARLINK-4034,PAYLOAD,2023-11-27 04:29:43,15.08813859,0.0001398,53.216,290.4999,96.3,263.8151,-0.00042518,-7.043e-05,0.0,0 STARLINK-4034,1 52700U 22053AW  23331.18731354 -.00007043  00000-0 -42518-3 0  9999,2 52700  53.2160 290.4999 0001398  96.3000 263.8151 15.08813859 84853,6917.96,95.439,540.792,538.858,0.0
52700.0,STARLINK-4034,PAYLOAD,2023-11-28 02:45:07,15.08855886,0.0001444,53.2168,286.338,86.08,274.0357,0.00048398,7.426e-05,0.0,0 STARLINK-4034,1 52700U 22053AW  23332.11466503  .00007426  00000-0  48398-3 0  9999,2 52700  53.2168 286.3380 0001444  86.0800 274.0357 15.08855886 84998,6917.832,95.437,540.696,538.698,0.0
52700.0,STARLINK-4034,PAYLOAD,2023-11-29 04:11:17,15.08848523,0.0001426,53.216,281.5797,102.3541,257.7611,0.00037101,5.623e-05,0.0,0 STARLINK-4034,1 52700U 22053AW  23333.17450839  .00005623  00000-0  37101-3 0  9998,2 52700  53.2160 281.5797 0001426 102.3541 257.7611 15.08848523 85153,6917.854,95.437,540.706,538.733,0.0
52700.0,STARLINK-4034,PAYLOAD,2023-11-29 07:22:03,15.08852524,0.0001579,53.2158,280.9831,118.6871,241.428,0.00037674,5.715e-05,0.0,0 STARLINK-4034,1 52700U 22053AW  23333.30698378  .00005715  00000-0  37674-3 0  9992,2 52700  53.2158 280.9831 0001579 118.6871 241.4280 15.08852524 85582,6917.842,95.437,540.799,538.615,0.0
52700.0,STARLINK-4034,PAYLOAD,2023-11-30 04:02:04,15.08842935,0.0001745,53.2169,277.1198,72.8545,287.2638,-3.4245e-05,-8.33e-06,0.0,0 STARLINK-4034,1 52700U 22053AW  23334.16810692 -.00000833  00000-0 -34245-4 0  9992,2 52700  53.2169 277.1198 0001745  72.8545 287.2638 15.08842935 85302,6917.871,95.437,540.944,538.529,0.0
52700.0,STARLINK-4034,PAYLOAD,2023-12-01 05:28:15,15.08842616,0.0001742,53.2184,272.3568,84.0776,276.0415,0.000212,3.088e-05,0.0,0 STARLINK-4034,1 52700U 22053AW  23335.22795271  .00003088  00000-0  21200-3 0  9994,2 52700  53.2184 272.3568 0001742  84.0776 276.0415 15.08842616 85467,6917.872,95.437,540.942,538.532,0.0
52700.0,STARLINK-4034,PAYLOAD,2023-12-02 00:32:51,15.0888034,0.000192,53.2168,268.7957,58.285,301.833,0.0010949,0.000172,0.0,0 STARLINK-4034,1 52700U 22053AW  23336.02282366  .00017200  00000-0  10949-2 0  9997,2 52700  53.2168 268.7957 0001920  58.2850 301.8330 15.08880340 85586,6917.757,95.435,540.95,538.294,0.0
52700.0,STARLINK-4034,PAYLOAD,2023-12-02 02:08:14,15.08888822,0.0002,53.217,268.4981,56.1751,303.9431,0.0012748,0.00020086,0.0,0 STARLINK-4034,1 52700U 22053AW  23336.08906089  .00020086  00000-0  12748-2 0  9993,2 52700  53.2170 268.4981 0002000  56.1751 303.9431 15.08888822 86006,6917.731,95.434,540.98,538.213,0.0
52700.0,STARLINK-4034,PAYLOAD,2023-12-02 22:48:15,15.08846687,0.0001406,53.2157,264.6313,103.2771,256.8378,-6.4569e-05,-1.316e-05,0.0,0 STARLINK-4034,1 52700U 22053AW  23336.95018110 -.00001316  00000-0 -64569-4 0  9995,2 52700  53.2157 264.6313 0001406 103.2771 256.8378 15.08846687 86136,6917.86,95.437,540.698,538.752,0.0
52700.0,STARLINK-4034,PAYLOAD,2023-12-03 01:59:02,15.08838993,0.000124,53.2159,264.0363,81.307,278.8062,-0.00016027,-2.838e-05,0.0,0 STARLINK-4034,1 52700U 22053AW  23337.08266490 -.00002838  00000-0 -16027-3 0  9991,2 52700  53.2159 264.0363 0001240  81.3070 278.8062 15.08838993 85742,6917.883,95.438,540.606,538.891,0.0
52700.0,STARLINK-4034,PAYLOAD,2023-12-04 00:14:27,15.08843702,0.000133,53.2163,259.8752,76.8278,283.2862,-0.00026614,-4.521e-05,0.0,0 STARLINK-4034,1 52700U 22053AW  23338.01003826 -.00004521  00000-0 -26614-3 0  9991,2 52700  53.2163 259.8752 0001330  76.8278 283.2862 15.08843702 85887,6917.869,95.437,540.654,538.814,0.0
52700.0,STARLINK-4034,PAYLOAD,2023-12-04 19:19:04,15.0884533,0.0001265,53.2166,256.3048,82.1732,277.9403,3.6995e-05,3.01e-06,0.0,0 STARLINK-4034,1 52700U 22053AW  23338.80491116  .00000301  00000-0  36995-4 0  9995,2 52700  53.2166 256.3048 0001265  82.1732 277.9403 15.08845330 86007,6917.864,95.437,540.604,538.854,0.0
52700.0,STARLINK-4034,PAYLOAD,2023-12-05 01:40:36,15.08841813,0.0001435,53.2163,255.1163,77.9026,282.2127,0.00030124,4.51e-05,0.0,0 STARLINK-4034,1 52700U 22053AW  23339.06986689  .00004510  00000-0  30124-3 0  9991,2 52700  53.2163 255.1163 0001435  77.9026 282.2127 15.08841813 86459,6917.875,95.437,540.733,538.747,0.0
52700.0,STARLINK-4034,PAYLOAD,2023-12-05 17:34:28,15.08831077,0.0001922,53.217,252.1462,79.9224,280.1985,0.00026194,3.882e-05,0.0,0 STARLINK-4034,1 52700U 22053AW  23339.73227638  .00003882  00000-0  26194-3 0  9990,2 52700  53.2170 252.1462 0001922  79.9224 280.1985 15.08831077 86145,6917.908,95.438,541.102,538.443,0.0
52700.0,STARLINK-4034,PAYLOAD,2023-12-06 01:31:24,15.08839166,0.0001516,53.2176,250.6558,74.291,285.8249,0.00015126,2.12e-05,0.0,0 STARLINK-4034,1 52700U 22053AW  23340.06347680  .00002120  00000-0  15126-3 0  9995,2 52700  53.2176 250.6558 0001516  74.2910 285.8249 15.08839166 86602,6917.883,95.438,540.797,538.699,0.0
52700.0,STARLINK-4034,PAYLOAD,2023-12-06 22:11:25,15.08836765,0.0001395,53.2171,246.7924,98.8821,261.2329,-8.9143e-05,-1.706e-05,0.0,0 STARLINK-4034,1 52700U 22053AW  23340.92460322 -.00001706  00000-0 -89143-4 0  9991,2 52700  53.2171 246.7924 0001395  98.8821 261.2329 15.08836765 86731,6917.89,95.438,540.72,538.79,0.0
52700.0,STARLINK-4034,PAYLOAD,2023-12-07 01:22:11,15.08872228,0.0001023,53.2166,246.1983,77.9403,282.1704,-0.00055627,-9.138e-05,0.0,0 STARLINK-4034,1 52700U 22053AW  23341.05707270 -.00009138  00000-0 -55627-3 0  9998,2 52700  53.2166 246.1983 0001023  77.9403 282.1704 15.08872228 86346,6917.782,95.436,540.355,538.939,0.0
52700.0,STARLINK-4034,PAYLOAD,2023-12-07 17:16:03,15.08838969,0.000145,53.2166,243.219,86.2832,273.8326,-7.4447e-06,-4.06e-06,0.0,0 STARLINK-4034,1 52700U 22053AW  23341.71948138 -.00000406  00000-0 -74447-5 0  9993,2 52700  53.2166 243.2190 0001450  86.2832 273.8326 15.08838969 86449,6917.884,95.438,540.752,538.745,0.0
52700.0,STARLINK-4034,PAYLOAD,2023-12-08 02:48:21,15.08846617,0.0001465,53.2162,241.4378,89.8661,270.2499,0.00010458,1.377e-05,0.0,0 STARLINK-4034,1 52700U 22053AW  23342.11691178  .00001377  00000-0  10458-3 0  9993,2 52700  53.2162 241.4378 0001465  89.8661 270.2499 15.08846617 86506,6917.86,95.437,540.739,538.712,0.0
52700.0,STARLINK-4034,PAYLOAD,2023-12-10 19:59:10,15.08837904,0.0001409,53.2158,229.2456,91.0568,269.0586,-5.0078e-06,-3.68e-06,0.0,0 STARLINK-4034,1 52700U 22053AW  23344.83275736 -.00000368  00000-0 -50078-5 0  9997,2 52700  53.2158 229.2456 0001409  91.0568 269.0586 15.08837904 86918,6917.887,95.438,540.727,538.777,0.0
52700.0,STARLINK-4034,PAYLOAD,2023-12-10 23:09:56,15.0883974,0.0001495,53.2156,228.65,92.7943,267.322,2.1979e-05,6.2e-07,0.0,0 STARLINK-4034,1 52700U 22053AW  23344.96523673  .00000062  00000-0  21979-4 0  9993,2 52700  53.2156 228.6500 0001495  92.7943 267.3220 15.08839740 87343,6917.881,95.438,540.78,538.712,0.0
52700.0,STARLINK-4034,PAYLOAD,2023-12-11 21:25:20,15.08837066,0.0001537,53.2156,224.4838,96.4947,263.622,4.5488e-05,4.36e-06,0.0,0 STARLINK-4034,1 52700U 22053AW  23345.89259742  .00000436  00000-0  45488-4 0  9995,2 52700  53.2156 224.4838 0001537  96.4947 263.6220 15.08837066 87486,6917.889,95.438,540.818,538.691,0.0
52700.0,STARLINK-4034,PAYLOAD,2023-12-11 23:00:43,15.08838288,0.0001583,53.2154,224.1891,98.0863,262.0308,6.1686e-05,6.94e-06,0.0,0 STARLINK-4034,1 52700U 22053AW  23345.95883626  .00000694  00000-0  61686-4 0  9990,2 52700  53.2154 224.1891 0001583  98.0863 262.0308 15.08838288 87089,6917.886,95.438,540.846,538.656,0.0
52700.0,STARLINK-4034,PAYLOAD,2023-12-12 19:40:44,15.08834076,0.000163,53.2157,220.3231,103.1342,256.9832,1.9005e-05,1.4e-07,0.0,0 STARLINK-4034,1 52700U 22053AW  23346.81996250  .00000014  00000-0  19005-4 0  9998,2 52700  53.2157 220.3231 0001630 103.1342 256.9832 15.08834076 87211,6917.898,95.438,540.891,538.636,0.0
52700.0,STARLINK-4034,PAYLOAD,2023-12-12 22:51:31,15.08834335,0.0001619,53.2159,219.729,103.1343,256.983,1.8787e-05,1.1e-07,0.0,0 STARLINK-4034,1 52700U 22053AW  23346.95244298  .00000011  00000-0  18787-4 0  9994,2 52700  53.2159 219.7290 0001619 103.1343 256.9830 15.08834335 87641,6917.898,95.438,540.883,538.643,0.0
